[
  {
    "OBJECT_NAME": "STARLINK-30578",
    "OBJECT_ID": "23160U",
    "EPOCH": "2025-11-11T05:13:57.398880",
    "MEAN_MOTION": 15.0252079,
    "ECCENTRICITY": 0.0001313,
    "INCLINATION": 43.0053,
    "RA_OF_ASC_NODE": 4.2489,
    "ARG_OF_PERICENTER": 294.5633,
    "MEAN_ANOMALY": 65.5072,
    "EPHEMERIS_TYPE": 0,
    "CLASSIFICATION_TYPE": "U",
    "NORAD_CAT_ID": 58093,
    "ELEMENT_SET_NO": 999,
    "REV_AT_EPOCH": 11509,
    "BSTAR": 0.0001519,
    "MEAN_MOTION_DOT": 1.848e-05,
    "MEAN_MOTION_DDOT": 0.0,
    "TLE_LINE1": "1 58093U 23160U   25315.21802545  .00001848  00000+0  15190-3 0  9999",
    "TLE_LINE2": "2 58093  43.0053   4.2489 0001313 294.5633  65.5072 15.02520790115091",
    "COMMENT": "Grouped by shell and plane from TLE"
  },
  {
    "OBJECT_NAME": "STARLINK-30574",
    "OBJECT_ID": "23160V",
    "EPOCH": "2025-11-11T04:06:51.305760",
    "MEAN_MOTION": 15.02506747,
    "ECCENTRICITY": 6.84e-05,
    "INCLINATION": 43.0056,
    "RA_OF_ASC_NODE": 3.9106,
    "ARG_OF_PERICENTER": 277.3712,
    "MEAN_ANOMALY": 82.7052,
    "EPHEMERIS_TYPE": 0,
    "CLASSIFICATION_TYPE": "U",
    "NORAD_CAT_ID": 58094,
    "ELEMENT_SET_NO": 999,
    "REV_AT_EPOCH": 11509,
    "BSTAR": 0.0,
    "MEAN_MOTION_DOT": -3.368e-05,
    "MEAN_MOTION_DDOT": 0.0,
    "TLE_LINE1": "1 58094U 23160V   25315.17142715 -.00003368  00000+0 -23453-3 0  9993",
    "TLE_LINE2": "2 58094  43.0056   3.9106 0000684 277.3712  82.7052 15.02506747115099",
    "COMMENT": "Grouped by shell and plane from TLE"
  },
  {
    "OBJECT_NAME": "STARLINK-30570",
    "OBJECT_ID": "23160W",
    "EPOCH": "2025-11-11T04:02:00.011616",
    "MEAN_MOTION": 15.02544526,
    "ECCENTRICITY": 0.0001361,
    "INCLINATION": 43.005,
    "RA_OF_ASC_NODE": 3.8838,
    "ARG_OF_PERICENTER": 267.2557,
    "MEAN_ANOMALY": 92.813,
    "EPHEMERIS_TYPE": 0,
    "CLASSIFICATION_TYPE": "U",
    "NORAD_CAT_ID": 58095,
    "ELEMENT_SET_NO": 999,
    "REV_AT_EPOCH": 11509,
    "BSTAR": 0.00012926000000000002,
    "MEAN_MOTION_DOT": 1.543e-05,
    "MEAN_MOTION_DDOT": 0.0,
    "TLE_LINE1": "1 58095U 23160W   25315.16805569  .00001543  00000+0  12926-3 0  9990",
    "TLE_LINE2": "2 58095  43.0050   3.8838 0001361 267.2557  92.8130 15.02544526115099",
    "COMMENT": "Grouped by shell and plane from TLE"
  },
  {
    "OBJECT_NAME": "STARLINK-30581",
    "OBJECT_ID": "23160X",
    "EPOCH": "2025-11-11T05:28:18.500160",
    "MEAN_MOTION": 15.02542738,
    "ECCENTRICITY": 0.0001395,
    "INCLINATION": 43.0048,
    "RA_OF_ASC_NODE": 4.3161,
    "ARG_OF_PERICENTER": 270.1035,
    "MEAN_ANOMALY": 89.9648,
    "EPHEMERIS_TYPE": 0,
    "CLASSIFICATION_TYPE": "U",
    "NORAD_CAT_ID": 58096,
    "ELEMENT_SET_NO": 999,
    "REV_AT_EPOCH": 11509,
    "BSTAR": 0.00012667,
    "MEAN_MOTION_DOT": 1.508e-05,
    "MEAN_MOTION_DDOT": 0.0,
    "TLE_LINE1": "1 58096U 23160X   25315.22799190  .00001508  00000+0  12667-3 0  9993",
    "TLE_LINE2": "2 58096  43.0048   4.3161 0001395 270.1035  89.9648 15.02542738115097",
    "COMMENT": "Grouped by shell and plane from TLE"
  },
  {
    "OBJECT_NAME": "STARLINK-34314",
    "OBJECT_ID": "25112A",
    "EPOCH": "2025-11-11T02:34:21.236736",
    "MEAN_MOTION": 15.05661746,
    "ECCENTRICITY": 0.0001041,
    "INCLINATION": 97.6042,
    "RA_OF_ASC_NODE": 4.5996,
    "ARG_OF_PERICENTER": 87.7939,
    "MEAN_ANOMALY": 272.3407,
    "EPHEMERIS_TYPE": 0,
    "CLASSIFICATION_TYPE": "U",
    "NORAD_CAT_ID": 64146,
    "ELEMENT_SET_NO": 999,
    "REV_AT_EPOCH": 2546,
    "BSTAR": 0.0005405,
    "MEAN_MOTION_DOT": 7.749e-05,
    "MEAN_MOTION_DDOT": 0.0,
    "TLE_LINE1": "1 64146U 25112A   25315.10719024  .00007749  00000+0  54050-3 0  9995",
    "TLE_LINE2": "2 64146  97.6042   4.5996 0001041  87.7939 272.3407 15.05661746 25466",
    "COMMENT": "Grouped by shell and plane from TLE"
  },
  {
    "OBJECT_NAME": "STARLINK-33926",
    "OBJECT_ID": "25112B",
    "EPOCH": "2025-11-11T03:34:11.491104",
    "MEAN_MOTION": 15.05681014,
    "ECCENTRICITY": 9.9e-05,
    "INCLINATION": 97.6051,
    "RA_OF_ASC_NODE": 4.6999,
    "ARG_OF_PERICENTER": 87.9993,
    "MEAN_ANOMALY": 272.1348,
    "EPHEMERIS_TYPE": 0,
    "CLASSIFICATION_TYPE": "U",
    "NORAD_CAT_ID": 64147,
    "ELEMENT_SET_NO": 999,
    "REV_AT_EPOCH": 2547,
    "BSTAR": 0.00073856,
    "MEAN_MOTION_DOT": 0.00010621,
    "MEAN_MOTION_DDOT": 0.0,
    "TLE_LINE1": "1 64147U 25112B   25315.14874411  .00010621  00000+0  73856-3 0  9990",
    "TLE_LINE2": "2 64147  97.6051   4.6999 0000990  87.9993 272.1348 15.05681014 25478",
    "COMMENT": "Grouped by shell and plane from TLE"
  },
  {
    "OBJECT_NAME": "STARLINK-34213",
    "OBJECT_ID": "25112C",
    "EPOCH": "2025-11-11T02:46:18.887232",
    "MEAN_MOTION": 15.05658253,
    "ECCENTRICITY": 2.84e-05,
    "INCLINATION": 97.6034,
    "RA_OF_ASC_NODE": 4.5894,
    "ARG_OF_PERICENTER": 121.6642,
    "MEAN_ANOMALY": 238.4612,
    "EPHEMERIS_TYPE": 0,
    "CLASSIFICATION_TYPE": "U",
    "NORAD_CAT_ID": 64148,
    "ELEMENT_SET_NO": 999,
    "REV_AT_EPOCH": 2546,
    "BSTAR": 0.00045533000000000005,
    "MEAN_MOTION_DOT": 6.517e-05,
    "MEAN_MOTION_DDOT": 0.0,
    "TLE_LINE1": "1 64148U 25112C   25315.11549638  .00006517  00000+0  45533-3 0  9998",
    "TLE_LINE2": "2 64148  97.6034   4.5894 0000284 121.6642 238.4612 15.05658253 25463",
    "COMMENT": "Grouped by shell and plane from TLE"
  },
  {
    "OBJECT_NAME": "STARLINK-33924",
    "OBJECT_ID": "25112D",
    "EPOCH": "2025-11-11T02:58:16.058208",
    "MEAN_MOTION": 15.05651386,
    "ECCENTRICITY": 7.26e-05,
    "INCLINATION": 97.6042,
    "RA_OF_ASC_NODE": 4.5803,
    "ARG_OF_PERICENTER": 113.6966,
    "MEAN_ANOMALY": 246.4338,
    "EPHEMERIS_TYPE": 0,
    "CLASSIFICATION_TYPE": "U",
    "NORAD_CAT_ID": 64149,
    "ELEMENT_SET_NO": 999,
    "REV_AT_EPOCH": 2546,
    "BSTAR": 0.0002759,
    "MEAN_MOTION_DOT": 3.923e-05,
    "MEAN_MOTION_DDOT": 0.0,
    "TLE_LINE1": "1 64149U 25112D   25315.12379697  .00003923  00000+0  27590-3 0  9997",
    "TLE_LINE2": "2 64149  97.6042   4.5803 0000726 113.6966 246.4338 15.05651386 25468",
    "COMMENT": "Grouped by shell and plane from TLE"
  },
  {
    "OBJECT_NAME": "STARLINK-34209",
    "OBJECT_ID": "25112E",
    "EPOCH": "2025-11-11T03:22:13.685952",
    "MEAN_MOTION": 15.05646977,
    "ECCENTRICITY": 0.0002889,
    "INCLINATION": 97.6034,
    "RA_OF_ASC_NODE": 4.711,
    "ARG_OF_PERICENTER": 138.0633,
    "MEAN_ANOMALY": 222.0815,
    "EPHEMERIS_TYPE": 0,
    "CLASSIFICATION_TYPE": "U",
    "NORAD_CAT_ID": 64150,
    "ELEMENT_SET_NO": 999,
    "REV_AT_EPOCH": 2547,
    "BSTAR": 0.00077967,
    "MEAN_MOTION_DOT": 0.00011207,
    "MEAN_MOTION_DDOT": 0.0,
    "TLE_LINE1": "1 64150U 25112E   25315.14043618  .00011207  00000+0  77967-3 0  9999",
    "TLE_LINE2": "2 64150  97.6034   4.7110 0002889 138.0633 222.0815 15.05646977 25479",
    "COMMENT": "Grouped by shell and plane from TLE"
  },
  {
    "OBJECT_NAME": "STARLINK-34338",
    "OBJECT_ID": "25112F",
    "EPOCH": "2025-11-11T03:10:15.130848",
    "MEAN_MOTION": 15.05657678,
    "ECCENTRICITY": 7.24e-05,
    "INCLINATION": 97.605,
    "RA_OF_ASC_NODE": 4.7238,
    "ARG_OF_PERICENTER": 165.1353,
    "MEAN_ANOMALY": 194.9895,
    "EPHEMERIS_TYPE": 0,
    "CLASSIFICATION_TYPE": "U",
    "NORAD_CAT_ID": 64151,
    "ELEMENT_SET_NO": 999,
    "REV_AT_EPOCH": 2547,
    "BSTAR": 0.00039832,
    "MEAN_MOTION_DOT": 5.692e-05,
    "MEAN_MOTION_DDOT": 0.0,
    "TLE_LINE1": "1 64151U 25112F   25315.13211957  .00005692  00000+0  39832-3 0  9992",
    "TLE_LINE2": "2 64151  97.6050   4.7238 0000724 165.1353 194.9895 15.05657678 25470",
    "COMMENT": "Grouped by shell and plane from TLE"
  },
  {
    "OBJECT_NAME": "STARLINK-34348",
    "OBJECT_ID": "25112G",
    "EPOCH": "2025-11-11T02:22:23.841120",
    "MEAN_MOTION": 15.05651441,
    "ECCENTRICITY": 6.51e-05,
    "INCLINATION": 97.6043,
    "RA_OF_ASC_NODE": 4.6114,
    "ARG_OF_PERICENTER": 89.928,
    "MEAN_ANOMALY": 270.2022,
    "EPHEMERIS_TYPE": 0,
    "CLASSIFICATION_TYPE": "U",
    "NORAD_CAT_ID": 64152,
    "ELEMENT_SET_NO": 999,
    "REV_AT_EPOCH": 2546,
    "BSTAR": 0.0006776299999999999,
    "MEAN_MOTION_DOT": 9.731e-05,
    "MEAN_MOTION_DDOT": 0.0,
    "TLE_LINE1": "1 64152U 25112G   25315.09888705  .00009731  00000+0  67763-3 0  9991",
    "TLE_LINE2": "2 64152  97.6043   4.6114 0000651  89.9280 270.2022 15.05651441 25467",
    "COMMENT": "Grouped by shell and plane from TLE"
  },
  {
    "OBJECT_NAME": "STARLINK-34345",
    "OBJECT_ID": "25112H",
    "EPOCH": "2025-11-11T03:46:08.003712",
    "MEAN_MOTION": 15.05662175,
    "ECCENTRICITY": 0.0001001,
    "INCLINATION": 97.6054,
    "RA_OF_ASC_NODE": 4.6899,
    "ARG_OF_PERICENTER": 104.8825,
    "MEAN_ANOMALY": 255.2513,
    "EPHEMERIS_TYPE": 0,
    "CLASSIFICATION_TYPE": "U",
    "NORAD_CAT_ID": 64153,
    "ELEMENT_SET_NO": 999,
    "REV_AT_EPOCH": 2547,
    "BSTAR": 0.00066522,
    "MEAN_MOTION_DOT": 9.554e-05,
    "MEAN_MOTION_DDOT": 0.0,
    "TLE_LINE1": "1 64153U 25112H   25315.15703708  .00009554  00000+0  66522-3 0  9993",
    "TLE_LINE2": "2 64153  97.6054   4.6899 0001001 104.8825 255.2513 15.05662175 25477",
    "COMMENT": "Grouped by shell and plane from TLE"
  },
  {
    "OBJECT_NAME": "STARLINK-34346",
    "OBJECT_ID": "25112K",
    "EPOCH": "2025-11-11T03:26:12.514560",
    "MEAN_MOTION": 15.05661709,
    "ECCENTRICITY": 0.0001452,
    "INCLINATION": 97.6042,
    "RA_OF_ASC_NODE": 4.715,
    "ARG_OF_PERICENTER": 86.2187,
    "MEAN_ANOMALY": 273.9206,
    "EPHEMERIS_TYPE": 0,
    "CLASSIFICATION_TYPE": "U",
    "NORAD_CAT_ID": 64155,
    "ELEMENT_SET_NO": 999,
    "REV_AT_EPOCH": 2547,
    "BSTAR": 0.00063932,
    "MEAN_MOTION_DOT": 9.179e-05,
    "MEAN_MOTION_DDOT": 0.0,
    "TLE_LINE1": "1 64155U 25112K   25315.14320040  .00009179  00000+0  63932-3 0  9993",
    "TLE_LINE2": "2 64155  97.6042   4.7150 0001452  86.2187 273.9206 15.05661709 25479",
    "COMMENT": "Grouped by shell and plane from TLE"
  }
]